STARLINK-36177          
1 66932U 25286H   26027.86204664  .00059410  00000+0  14863-2 0  9994
2 66932  53.1572 188.9551 0001351  80.2906 279.8252 15.39565337  9150
STARLINK-36157          
1 66933U 25286J   26027.78319741  .00055004  00000+0  13738-2 0  9994
2 66933  53.1589 189.1729 0001907  82.0288 278.0933 15.39649520  9142
STARLINK-36153          
1 66934U 25286K   26027.74149782  .00069260  00000+0  17235-2 0  9992
2 66934  53.1626 189.6250 0001853  87.2873 272.8344 15.39660448  9135
STARLINK-36127          
1 66935U 25286L   26027.82034414  .00070246  00000+0  17469-2 0  9992
2 66935  53.1574 189.4079 0000516  58.8592 301.2464 15.39674553  9145
STARLINK-36160          
1 66936U 25286M   26027.91766700  .00060458  00000+0  15091-2 0  9996
2 66936  53.1568 188.5900 0001245  61.7167 298.3964 15.39627034  9157
STARLINK-36165          
1 66937U 25286N   26027.96864926  .00065239  00000+0  16235-2 0  9994
2 66937  53.1588 188.1971 0001022 117.6212 242.4897 15.39686874  9173
STARLINK-36155          
1 66938U 25286P   26027.33335648  .00091910  00000+0  22852-2 0  9997
2 66938  53.1580 191.0869 0001107  90.9858  37.4953 15.39552184  5940
STARLINK-36154          
1 66939U 25286Q   26027.16688952  .00062056  00000+0  15476-2 0  9991
2 66939  53.1565 192.4385 0001127  85.4989 274.6145 15.39643649  9048
STARLINK-36121          
1 66940U 25286R   26027.16224959  .00055557  00000+0  13881-2 0  9992
2 66940  53.1565 192.4089 0002041  76.2709 283.8523 15.39634217  9048
STARLINK-36088          
1 66941U 25286S   26026.84686259  .00057502  00000+0  14356-2 0  9992
2 66941  53.1558 193.2779 0000606 101.3817 258.7256 15.39644328  9005
STARLINK-36100          
1 66942U 25286T   26027.33335648  .00099354  00000+0  24699-2 0  9993
2 66942  53.1575 191.5496 0001346  93.3919 161.5190 15.39517100  5941
STARLINK-36109          
1 66943U 25286U   26027.73254443  .00067319  00000+0  16728-2 0  9991
2 66943  53.1592 189.5667 0000796 102.2118 257.8976 15.39716548  9062
STARLINK-36112          
1 66944U 25286V   26027.91800224  .00074832  00000+0  18621-2 0  9998
2 66944  53.1580 188.5896 0001398  71.8403 288.2754 15.39626246  9168
STARLINK-36110          
1 66945U 25286W   26026.75418386  .00064465  00000+0  16054-2 0  9993
2 66945  53.1589 194.1237 0001066  86.6211 273.4916 15.39669058  8986
STARLINK-36115          
1 66946U 25286X   26027.00455332  .00056012  00000+0  13987-2 0  9996
2 66946  53.1536 192.8410 0001508 133.8580 226.2550 15.39648893  9022
STARLINK-36089          
1 66947U 25286Y   26027.89942402  .00047960  00000+0  12010-2 0  9991
2 66947  53.1594 188.4729 0002848 147.2692 212.8490 15.39628807  9164
