[{"OBJECT_NAME":"STARLINK-36177","OBJECT_ID":"2025-286H","EPOCH":"2026-01-27T20:41:20.829696","MEAN_MOTION":15.39565337,"ECCENTRICITY":0.00013513,"INCLINATION":53.1572,"RA_OF_ASC_NODE":188.9551,"ARG_OF_PERICENTER":80.2906,"MEAN_ANOMALY":279.8252,"EPHEMERIS_TYPE":0,"CLASSIFICATION_TYPE":"U","NORAD_CAT_ID":66932,"ELEMENT_SET_NO":999,"REV_AT_EPOCH":915,"BSTAR":0.0014863407,"MEAN_MOTION_DOT":0.0005941,"MEAN_MOTION_DDOT":0},{"OBJECT_NAME":"STARLINK-36157","OBJECT_ID":"2025-286J","EPOCH":"2026-01-27T18:47:48.256224","MEAN_MOTION":15.3964952,"ECCENTRICITY":0.00019074,"INCLINATION":53.1589,"RA_OF_ASC_NODE":189.1729,"ARG_OF_PERICENTER":82.0288,"MEAN_ANOMALY":278.0933,"EPHEMERIS_TYPE":0,"CLASSIFICATION_TYPE":"U","NORAD_CAT_ID":66933,"ELEMENT_SET_NO":999,"REV_AT_EPOCH":914,"BSTAR":0.0013738318,"MEAN_MOTION_DOT":0.00055004,"MEAN_MOTION_DDOT":0},{"OBJECT_NAME":"STARLINK-36153","OBJECT_ID":"2025-286K","EPOCH":"2026-01-27T17:47:45.411648","MEAN_MOTION":15.39660448,"ECCENTRICITY":0.00018533,"INCLINATION":53.1626,"RA_OF_ASC_NODE":189.625,"ARG_OF_PERICENTER":87.2873,"MEAN_ANOMALY":272.8344,"EPHEMERIS_TYPE":0,"CLASSIFICATION_TYPE":"U","NORAD_CAT_ID":66934,"ELEMENT_SET_NO":999,"REV_AT_EPOCH":913,"BSTAR":0.0017234665,"MEAN_MOTION_DOT":0.0006926,"MEAN_MOTION_DDOT":0},{"OBJECT_NAME":"STARLINK-36127","OBJECT_ID":"2025-286L","EPOCH":"2026-01-27T19:41:17.733696","MEAN_MOTION":15.39674553,"ECCENTRICITY":5.167e-5,"INCLINATION":53.1574,"RA_OF_ASC_NODE":189.4079,"ARG_OF_PERICENTER":58.8592,"MEAN_ANOMALY":301.2464,"EPHEMERIS_TYPE":0,"CLASSIFICATION_TYPE":"U","NORAD_CAT_ID":66935,"ELEMENT_SET_NO":999,"REV_AT_EPOCH":914,"BSTAR":0.0017468638,"MEAN_MOTION_DOT":0.00070246,"MEAN_MOTION_DDOT":0},{"OBJECT_NAME":"STARLINK-36160","OBJECT_ID":"2025-286M","EPOCH":"2026-01-27T22:01:26.428800","MEAN_MOTION":15.39627034,"ECCENTRICITY":0.00012451,"INCLINATION":53.1568,"RA_OF_ASC_NODE":188.59,"ARG_OF_PERICENTER":61.7167,"MEAN_ANOMALY":298.3964,"EPHEMERIS_TYPE":0,"CLASSIFICATION_TYPE":"U","NORAD_CAT_ID":66936,"ELEMENT_SET_NO":999,"REV_AT_EPOCH":915,"BSTAR":0.0015091281,"MEAN_MOTION_DOT":0.00060458,"MEAN_MOTION_DDOT":0},{"OBJECT_NAME":"STARLINK-36165","OBJECT_ID":"2025-286N","EPOCH":"2026-01-27T23:14:51.296064","MEAN_MOTION":15.39686874,"ECCENTRICITY":0.00010228,"INCLINATION":53.1588,"RA_OF_ASC_NODE":188.1971,"ARG_OF_PERICENTER":117.6212,"MEAN_ANOMALY":242.4897,"EPHEMERIS_TYPE":0,"CLASSIFICATION_TYPE":"U","NORAD_CAT_ID":66937,"ELEMENT_SET_NO":999,"REV_AT_EPOCH":917,"BSTAR":0.0016234693,"MEAN_MOTION_DOT":0.00065239,"MEAN_MOTION_DDOT":0},{"OBJECT_NAME":"STARLINK-36155","OBJECT_ID":"2025-286P","EPOCH":"2026-01-27T08:00:01.999872","MEAN_MOTION":15.39552184,"ECCENTRICITY":0.00011077,"INCLINATION":53.158,"RA_OF_ASC_NODE":191.0869,"ARG_OF_PERICENTER":90.9858,"MEAN_ANOMALY":37.4953,"EPHEMERIS_TYPE":0,"CLASSIFICATION_TYPE":"U","NORAD_CAT_ID":66938,"ELEMENT_SET_NO":999,"REV_AT_EPOCH":594,"BSTAR":0.0022852121,"MEAN_MOTION_DOT":0.0009191,"MEAN_MOTION_DDOT":0},{"OBJECT_NAME":"STARLINK-36154","OBJECT_ID":"2025-286Q","EPOCH":"2026-01-27T04:00:19.254528","MEAN_MOTION":15.39643649,"ECCENTRICITY":0.00011275,"INCLINATION":53.1565,"RA_OF_ASC_NODE":192.4385,"ARG_OF_PERICENTER":85.4989,"MEAN_ANOMALY":274.6145,"EPHEMERIS_TYPE":0,"CLASSIFICATION_TYPE":"U","NORAD_CAT_ID":66939,"ELEMENT_SET_NO":999,"REV_AT_EPOCH":904,"BSTAR":0.0015475698,"MEAN_MOTION_DOT":0.00062056,"MEAN_MOTION_DDOT":0},{"OBJECT_NAME":"STARLINK-36121","OBJECT_ID":"2025-286R","EPOCH":"2026-01-27T03:53:38.364576","MEAN_MOTION":15.39634217,"ECCENTRICITY":0.00020414,"INCLINATION":53.1565,"RA_OF_ASC_NODE":192.4089,"ARG_OF_PERICENTER":76.2709,"MEAN_ANOMALY":283.8523,"EPHEMERIS_TYPE":0,"CLASSIFICATION_TYPE":"U","NORAD_CAT_ID":66940,"ELEMENT_SET_NO":999,"REV_AT_EPOCH":904,"BSTAR":0.0013881306,"MEAN_MOTION_DOT":0.00055557,"MEAN_MOTION_DDOT":0},{"OBJECT_NAME":"STARLINK-36088","OBJECT_ID":"2025-286S","EPOCH":"2026-01-26T20:19:28.927776","MEAN_MOTION":15.39644328,"ECCENTRICITY":6.06e-5,"INCLINATION":53.1558,"RA_OF_ASC_NODE":193.2779,"ARG_OF_PERICENTER":101.3817,"MEAN_ANOMALY":258.7256,"EPHEMERIS_TYPE":0,"CLASSIFICATION_TYPE":"U","NORAD_CAT_ID":66941,"ELEMENT_SET_NO":999,"REV_AT_EPOCH":900,"BSTAR":0.0014355505,"MEAN_MOTION_DOT":0.00057502,"MEAN_MOTION_DDOT":0},{"OBJECT_NAME":"STARLINK-36100","OBJECT_ID":"2025-286T","EPOCH":"2026-01-27T08:00:01.999872","MEAN_MOTION":15.395171,"ECCENTRICITY":0.00013467,"INCLINATION":53.1575,"RA_OF_ASC_NODE":191.5496,"ARG_OF_PERICENTER":93.3919,"MEAN_ANOMALY":161.519,"EPHEMERIS_TYPE":0,"CLASSIFICATION_TYPE":"U","NORAD_CAT_ID":66942,"ELEMENT_SET_NO":999,"REV_AT_EPOCH":594,"BSTAR":0.0024699199,"MEAN_MOTION_DOT":0.00099354,"MEAN_MOTION_DDOT":0},{"OBJECT_NAME":"STARLINK-36109","OBJECT_ID":"2025-286U","EPOCH":"2026-01-27T17:34:51.838752","MEAN_MOTION":15.39716548,"ECCENTRICITY":7.965e-5,"INCLINATION":53.1592,"RA_OF_ASC_NODE":189.5667,"ARG_OF_PERICENTER":102.2118,"MEAN_ANOMALY":257.8976,"EPHEMERIS_TYPE":0,"CLASSIFICATION_TYPE":"U","NORAD_CAT_ID":66943,"ELEMENT_SET_NO":999,"REV_AT_EPOCH":906,"BSTAR":0.0016728364,"MEAN_MOTION_DOT":0.00067319,"MEAN_MOTION_DDOT":0},{"OBJECT_NAME":"STARLINK-36112","OBJECT_ID":"2025-286V","EPOCH":"2026-01-27T22:01:55.393536","MEAN_MOTION":15.39626246,"ECCENTRICITY":0.00013982,"INCLINATION":53.158,"RA_OF_ASC_NODE":188.5896,"ARG_OF_PERICENTER":71.8403,"MEAN_ANOMALY":288.2754,"EPHEMERIS_TYPE":0,"CLASSIFICATION_TYPE":"U","NORAD_CAT_ID":66944,"ELEMENT_SET_NO":999,"REV_AT_EPOCH":916,"BSTAR":0.0018620691,"MEAN_MOTION_DOT":0.00074832,"MEAN_MOTION_DDOT":0},{"OBJECT_NAME":"STARLINK-36110","OBJECT_ID":"2025-286W","EPOCH":"2026-01-26T18:06:01.485504","MEAN_MOTION":15.39669058,"ECCENTRICITY":0.00010667,"INCLINATION":53.1589,"RA_OF_ASC_NODE":194.1237,"ARG_OF_PERICENTER":86.6211,"MEAN_ANOMALY":273.4916,"EPHEMERIS_TYPE":0,"CLASSIFICATION_TYPE":"U","NORAD_CAT_ID":66945,"ELEMENT_SET_NO":999,"REV_AT_EPOCH":898,"BSTAR":0.0016054212,"MEAN_MOTION_DOT":0.00064465,"MEAN_MOTION_DDOT":0},{"OBJECT_NAME":"STARLINK-36115","OBJECT_ID":"2025-286X","EPOCH":"2026-01-27T00:06:33.406848","MEAN_MOTION":15.39648893,"ECCENTRICITY":0.00015089,"INCLINATION":53.1536,"RA_OF_ASC_NODE":192.841,"ARG_OF_PERICENTER":133.858,"MEAN_ANOMALY":226.255,"EPHEMERIS_TYPE":0,"CLASSIFICATION_TYPE":"U","NORAD_CAT_ID":66946,"ELEMENT_SET_NO":999,"REV_AT_EPOCH":902,"BSTAR":0.0013986787,"MEAN_MOTION_DOT":0.00056012,"MEAN_MOTION_DDOT":0},{"OBJECT_NAME":"STARLINK-36089","OBJECT_ID":"2025-286Y","EPOCH":"2026-01-27T21:35:10.235328","MEAN_MOTION":15.39628807,"ECCENTRICITY":0.00028488,"INCLINATION":53.1594,"RA_OF_ASC_NODE":188.4729,"ARG_OF_PERICENTER":147.2692,"MEAN_ANOMALY":212.849,"EPHEMERIS_TYPE":0,"CLASSIFICATION_TYPE":"U","NORAD_CAT_ID":66947,"ELEMENT_SET_NO":999,"REV_AT_EPOCH":916,"BSTAR":0.0012010188,"MEAN_MOTION_DOT":0.0004796,"MEAN_MOTION_DDOT":0}]
